CCSDS_OMM_VERS = 2.0
CREATION_DATE  = 
ORIGINATOR     = 

OBJECT_NAME    = STARLINK-36582
OBJECT_ID      = 2026-018L
CENTER_NAME    = EARTH
REF_FRAME      = TEME
TIME_SYSTEM    = UTC
MEAN_ELEMENT_THEORY = SGP/SGP4

EPOCH          = 2026-02-12T04:00:03.000096
MEAN_MOTION    = 15.80820900
ECCENTRICITY   = .0001067
INCLINATION    = 97.2839
RA_OF_ASC_NODE = 107.6837
ARG_OF_PERICENTER = 106.8469
MEAN_ANOMALY   = 48.8554

EPHEMERIS_TYPE = 0
CLASSIFICATION_TYPE = U
NORAD_CAT_ID   = 67599
ELEMENT_SET_NO = 999
REV_AT_EPOCH   = 335
BSTAR          = -.27547E-4
MEAN_MOTION_DOT = -.5416E-4
MEAN_MOTION_DDOT = 0

CCSDS_OMM_VERS = 2.0
CREATION_DATE  = 
ORIGINATOR     = 

OBJECT_NAME    = STARLINK-36640
OBJECT_ID      = 2026-018M
CENTER_NAME    = EARTH
REF_FRAME      = TEME
TIME_SYSTEM    = UTC
MEAN_ELEMENT_THEORY = SGP/SGP4

EPOCH          = 2026-02-12T04:00:03.000096
MEAN_MOTION    = 15.75249863
ECCENTRICITY   = .0001699
INCLINATION    = 97.2814
RA_OF_ASC_NODE = 107.6839
ARG_OF_PERICENTER = 69.9606
MEAN_ANOMALY   = 85.5364

EPHEMERIS_TYPE = 0
CLASSIFICATION_TYPE = U
NORAD_CAT_ID   = 67600
ELEMENT_SET_NO = 999
REV_AT_EPOCH   = 325
BSTAR          = -.73584E-3
MEAN_MOTION_DOT = -.108786E-2
MEAN_MOTION_DDOT = 0

CCSDS_OMM_VERS = 2.0
CREATION_DATE  = 
ORIGINATOR     = 

OBJECT_NAME    = STARLINK-36635
OBJECT_ID      = 2026-018N
CENTER_NAME    = EARTH
REF_FRAME      = TEME
TIME_SYSTEM    = UTC
MEAN_ELEMENT_THEORY = SGP/SGP4

EPOCH          = 2026-02-12T04:00:03.000096
MEAN_MOTION    = 15.80858736
ECCENTRICITY   = .0001411
INCLINATION    = 97.2842
RA_OF_ASC_NODE = 107.6848
ARG_OF_PERICENTER = 59.3464
MEAN_ANOMALY   = 101.3936

EPHEMERIS_TYPE = 0
CLASSIFICATION_TYPE = U
NORAD_CAT_ID   = 67601
ELEMENT_SET_NO = 999
REV_AT_EPOCH   = 325
BSTAR          = -.44058E-3
MEAN_MOTION_DOT = -.83892E-3
MEAN_MOTION_DDOT = 0

CCSDS_OMM_VERS = 2.0
CREATION_DATE  = 
ORIGINATOR     = 

OBJECT_NAME    = STARLINK-36631
OBJECT_ID      = 2026-018P
CENTER_NAME    = EARTH
REF_FRAME      = TEME
TIME_SYSTEM    = UTC
MEAN_ELEMENT_THEORY = SGP/SGP4

EPOCH          = 2026-02-12T04:00:03.000096
MEAN_MOTION    = 15.80843865
ECCENTRICITY   = .0001641
INCLINATION    = 97.2841
RA_OF_ASC_NODE = 107.6907
ARG_OF_PERICENTER = 109.6997
MEAN_ANOMALY   = 64.5764

EPHEMERIS_TYPE = 0
CLASSIFICATION_TYPE = U
NORAD_CAT_ID   = 67602
ELEMENT_SET_NO = 999
REV_AT_EPOCH   = 324
BSTAR          = -.36906E-3
MEAN_MOTION_DOT = -.70361E-3
MEAN_MOTION_DDOT = 0

CCSDS_OMM_VERS = 2.0
CREATION_DATE  = 
ORIGINATOR     = 

OBJECT_NAME    = STARLINK-36626
OBJECT_ID      = 2026-018Q
CENTER_NAME    = EARTH
REF_FRAME      = TEME
TIME_SYSTEM    = UTC
MEAN_ELEMENT_THEORY = SGP/SGP4

EPOCH          = 2026-02-12T04:00:03.000096
MEAN_MOTION    = 15.80792272
ECCENTRICITY   = .0001451
INCLINATION    = 97.2827
RA_OF_ASC_NODE = 107.6971
ARG_OF_PERICENTER = 58.8801
MEAN_ANOMALY   = 133.4074

EPHEMERIS_TYPE = 0
CLASSIFICATION_TYPE = U
NORAD_CAT_ID   = 67603
ELEMENT_SET_NO = 999
REV_AT_EPOCH   = 324
BSTAR          = .33255E-4
MEAN_MOTION_DOT = .6226E-4
MEAN_MOTION_DDOT = 0

CCSDS_OMM_VERS = 2.0
CREATION_DATE  = 
ORIGINATOR     = 

OBJECT_NAME    = STARLINK-36605
OBJECT_ID      = 2026-018R
CENTER_NAME    = EARTH
REF_FRAME      = TEME
TIME_SYSTEM    = UTC
MEAN_ELEMENT_THEORY = SGP/SGP4

EPOCH          = 2026-02-12T04:00:03.000096
MEAN_MOTION    = 15.80531104
ECCENTRICITY   = .0002031
INCLINATION    = 97.2832
RA_OF_ASC_NODE = 107.6952
ARG_OF_PERICENTER = 90.3416
MEAN_ANOMALY   = 97.0895

EPHEMERIS_TYPE = 0
CLASSIFICATION_TYPE = U
NORAD_CAT_ID   = 67604
ELEMENT_SET_NO = 999
REV_AT_EPOCH   = 324
BSTAR          = -.11774E-1
MEAN_MOTION_DOT = -.1940064E-1
MEAN_MOTION_DDOT = 0

CCSDS_OMM_VERS = 2.0
CREATION_DATE  = 
ORIGINATOR     = 

OBJECT_NAME    = STARLINK-36281
OBJECT_ID      = 2026-018S
CENTER_NAME    = EARTH
REF_FRAME      = TEME
TIME_SYSTEM    = UTC
MEAN_ELEMENT_THEORY = SGP/SGP4

EPOCH          = 2026-02-12T04:00:03.000096
MEAN_MOTION    = 15.80828553
ECCENTRICITY   = .0001605
INCLINATION    = 97.2831
RA_OF_ASC_NODE = 107.6926
ARG_OF_PERICENTER = 85.4727
MEAN_ANOMALY   = 95.8877

EPHEMERIS_TYPE = 0
CLASSIFICATION_TYPE = U
NORAD_CAT_ID   = 67605
ELEMENT_SET_NO = 999
REV_AT_EPOCH   = 329
BSTAR          = -.63933E-4
MEAN_MOTION_DOT = -.12378E-3
MEAN_MOTION_DDOT = 0

CCSDS_OMM_VERS = 2.0
CREATION_DATE  = 
ORIGINATOR     = 

OBJECT_NAME    = STARLINK-35843
OBJECT_ID      = 2026-018T
CENTER_NAME    = EARTH
REF_FRAME      = TEME
TIME_SYSTEM    = UTC
MEAN_ELEMENT_THEORY = SGP/SGP4

EPOCH          = 2026-02-12T04:00:03.000096
MEAN_MOTION    = 15.80828850
ECCENTRICITY   = .0001182
INCLINATION    = 97.2826
RA_OF_ASC_NODE = 107.6986
ARG_OF_PERICENTER = 92.4932
MEAN_ANOMALY   = 105.4343

EPHEMERIS_TYPE = 0
CLASSIFICATION_TYPE = U
NORAD_CAT_ID   = 67606
ELEMENT_SET_NO = 999
REV_AT_EPOCH   = 330
BSTAR          = -.19126E-3
MEAN_MOTION_DOT = -.36644E-3
MEAN_MOTION_DDOT = 0

CCSDS_OMM_VERS = 2.0
CREATION_DATE  = 
ORIGINATOR     = 

OBJECT_NAME    = STARLINK-36351
OBJECT_ID      = 2026-018U
CENTER_NAME    = EARTH
REF_FRAME      = TEME
TIME_SYSTEM    = UTC
MEAN_ELEMENT_THEORY = SGP/SGP4

EPOCH          = 2026-02-12T04:00:03.000096
MEAN_MOTION    = 15.80785790
ECCENTRICITY   = .0001309
INCLINATION    = 97.2832
RA_OF_ASC_NODE = 107.7027
ARG_OF_PERICENTER = 85.0685
MEAN_ANOMALY   = 117.8878

EPHEMERIS_TYPE = 0
CLASSIFICATION_TYPE = U
NORAD_CAT_ID   = 67607
ELEMENT_SET_NO = 999
REV_AT_EPOCH   = 330
BSTAR          = .57377E-3
MEAN_MOTION_DOT = .111018E-2
MEAN_MOTION_DDOT = 0

CCSDS_OMM_VERS = 2.0
CREATION_DATE  = 
ORIGINATOR     = 

OBJECT_NAME    = STARLINK-36411
OBJECT_ID      = 2026-018V
CENTER_NAME    = EARTH
REF_FRAME      = TEME
TIME_SYSTEM    = UTC
MEAN_ELEMENT_THEORY = SGP/SGP4

EPOCH          = 2026-02-12T04:00:03.000096
MEAN_MOTION    = 15.80839899
ECCENTRICITY   = .0001113
INCLINATION    = 97.2802
RA_OF_ASC_NODE = 107.7039
ARG_OF_PERICENTER = 89.5309
MEAN_ANOMALY   = 121.1701

EPHEMERIS_TYPE = 0
CLASSIFICATION_TYPE = U
NORAD_CAT_ID   = 67608
ELEMENT_SET_NO = 999
REV_AT_EPOCH   = 329
BSTAR          = -.24263E-3
MEAN_MOTION_DOT = -.46419E-3
MEAN_MOTION_DDOT = 0

CCSDS_OMM_VERS = 2.0
CREATION_DATE  = 
ORIGINATOR     = 

OBJECT_NAME    = STARLINK-36312
OBJECT_ID      = 2026-018W
CENTER_NAME    = EARTH
REF_FRAME      = TEME
TIME_SYSTEM    = UTC
MEAN_ELEMENT_THEORY = SGP/SGP4

EPOCH          = 2026-02-12T04:00:03.000096
MEAN_MOTION    = 15.80797530
ECCENTRICITY   = .0001319
INCLINATION    = 97.2814
RA_OF_ASC_NODE = 107.7083
ARG_OF_PERICENTER = 79.1783
MEAN_ANOMALY   = 138.2899

EPHEMERIS_TYPE = 0
CLASSIFICATION_TYPE = U
NORAD_CAT_ID   = 67609
ELEMENT_SET_NO = 999
REV_AT_EPOCH   = 330
BSTAR          = .454E-3
MEAN_MOTION_DOT = .87625E-3
MEAN_MOTION_DDOT = 0

CCSDS_OMM_VERS = 2.0
CREATION_DATE  = 
ORIGINATOR     = 

OBJECT_NAME    = STARLINK-36387
OBJECT_ID      = 2026-018X
CENTER_NAME    = EARTH
REF_FRAME      = TEME
TIME_SYSTEM    = UTC
MEAN_ELEMENT_THEORY = SGP/SGP4

EPOCH          = 2026-02-12T04:00:03.000096
MEAN_MOTION    = 15.80812104
ECCENTRICITY   = .0001356
INCLINATION    = 97.2806
RA_OF_ASC_NODE = 107.7106
ARG_OF_PERICENTER = 88.2548
MEAN_ANOMALY   = 137.4071

EPHEMERIS_TYPE = 0
CLASSIFICATION_TYPE = U
NORAD_CAT_ID   = 67610
ELEMENT_SET_NO = 999
REV_AT_EPOCH   = 330
BSTAR          = .49801E-5
MEAN_MOTION_DOT = .812E-5
MEAN_MOTION_DDOT = 0

