STARLINK-36582          
1 67599U 26018L   26043.16670139 -.00005416  00000+0 -27547-4 0  9997
2 67599  97.2839 107.6837 0001067 106.8469  48.8554 15.80820900  3354
STARLINK-36640          
1 67600U 26018M   26043.16670139 -.00108786  00000+0 -73584-3 0  9995
2 67600  97.2814 107.6839 0001699  69.9606  85.5364 15.75249863  3258
STARLINK-36635          
1 67601U 26018N   26043.16670139 -.00083892  00000+0 -44058-3 0  9990
2 67601  97.2842 107.6848 0001411  59.3464 101.3936 15.80858736  3250
STARLINK-36631          
1 67602U 26018P   26043.16670139 -.00070361  00000+0 -36906-3 0  9991
2 67602  97.2841 107.6907 0001641 109.6997  64.5764 15.80843865  3246
STARLINK-36626          
1 67603U 26018Q   26043.16670139  .00006226  00000+0  33255-4 0  9994
2 67603  97.2827 107.6971 0001451  58.8801 133.4074 15.80792272  3245
STARLINK-36605          
1 67604U 26018R   26043.16670139 -.01940064  00000+0 -11774-1 0  9994
2 67604  97.2832 107.6952 0002031  90.3416  97.0895 15.80531104  3240
STARLINK-36281          
1 67605U 26018S   26043.16670139 -.00012378  00000+0 -63933-4 0  9999
2 67605  97.2831 107.6926 0001605  85.4727  95.8877 15.80828553  3295
STARLINK-35843          
1 67606U 26018T   26043.16670139 -.00036644  00000+0 -19126-3 0  9996
2 67606  97.2826 107.6986 0001182  92.4932 105.4343 15.80828850  3300
STARLINK-36351          
1 67607U 26018U   26043.16670139  .00111018  00000+0  57377-3 0  9994
2 67607  97.2832 107.7027 0001309  85.0685 117.8878 15.80785790  3304
STARLINK-36411          
1 67608U 26018V   26043.16670139 -.00046419  00000+0 -24263-3 0  9997
2 67608  97.2802 107.7039 0001113  89.5309 121.1701 15.80839899  3291
STARLINK-36312          
1 67609U 26018W   26043.16670139  .00087625  00000+0  45400-3 0  9996
2 67609  97.2814 107.7083 0001319  79.1783 138.2899 15.80797530  3307
STARLINK-36387          
1 67610U 26018X   26043.16670139  .00000812  00000+0  49801-5 0  9992
2 67610  97.2806 107.7106 0001356  88.2548 137.4071 15.80812104  3305
